$$SOE
2460147.500000000, A.D. 2023-Jul-22 00:00:00.0000, 3.734651210589735E+08, 4.660699717155963E+07, -5.819737085982095E+07,
2460154.500000000, A.D. 2023-Jul-29 00:00:00.0000, 3.724953319747239E+08, 5.810155930747901E+07, -5.606284909193328E+07,
2460161.500000000, A.D. 2023-Aug-05 00:00:00.0000, 3.711990794657851E+08, 6.954536195286283E+07, -5.387915137044847E+07,
2460168.500000000, A.D. 2023-Aug-12 00:00:00.0000, 3.695783620392489E+08, 8.092853759413725E+07, -5.164831705046520E+07,
2460175.500000000, A.D. 2023-Aug-19 00:00:00.0000, 3.676355187181910E+08, 9.224133790915397E+07, -4.937242544093740E+07,
2460182.500000000, A.D. 2023-Aug-26 00:00:00.0000, 3.653732220794175E+08, 1.034741472749466E+08, -4.705359228022154E+07,
2460189.500000000, A.D. 2023-Sep-02 00:00:00.0000, 3.627944706216189E+08, 1.146174956874708E+08, -4.469396619038691E+07,
2460196.500000000, A.D. 2023-Sep-09 00:00:00.0000, 3.599025805423467E+08, 1.256620710183664E+08, -4.229572512982812E+07,
2460203.500000000, A.D. 2023-Sep-16 00:00:00.0000, 3.567011771360114E+08, 1.365987305191309E+08, -3.986107287670968E+07,
2460210.500000000, A.D. 2023-Sep-23 00:00:00.0000, 3.531941862723381E+08, 1.474185118289537E+08, -3.739223556950384E+07,
2460217.500000000, A.D. 2023-Sep-30 00:00:00.0000, 3.493858256536502E+08, 1.581126446499786E+08, -3.489145818628489E+07,
2460224.500000000, A.D. 2023-Oct-07 00:00:00.0000, 3.452805935360263E+08, 1.686725625312773E+08, -3.236100080102710E+07,
2460231.500000000, A.D. 2023-Oct-14 00:00:00.0000, 3.408832560036548E+08, 1.790899114388673E+08, -2.980313499417587E+07,
2460238.500000000, A.D. 2023-Oct-21 00:00:00.0000, 3.361988360747383E+08, 1.893565567035856E+08, -2.722014059332643E+07,
2460245.500000000, A.D. 2023-Oct-28 00:00:00.0000, 3.312326032613702E+08, 1.994645905995098E+08, -2.461430243796049E+07,
2460252.500000000, A.D. 2023-Nov-04 00:00:00.0000, 3.259900623811815E+08, 2.094063397790877E+08, -2.198790712524842E+07,
2460259.500000000, A.D. 2023-Nov-11 00:00:00.0000, 3.204769418452398E+08, 2.191743719645609E+08, -1.934323981037881E+07,
2460266.500000000, A.D. 2023-Nov-18 00:00:00.0000, 3.146991816869604E+08, 2.287615018346042E+08, -1.668258109440203E+07,
2460273.500000000, A.D. 2023-Nov-25 00:00:00.0000, 3.086629214493371E+08, 2.381607961357886E+08, -1.400820401146688E+07,
2460280.500000000, A.D. 2023-Dec-02 00:00:00.0000, 3.023744880026604E+08, 2.473655780177574E+08, -1.132237112530832E+07,
2460287.500000000, A.D. 2023-Dec-09 00:00:00.0000, 2.958403834136335E+08, 2.563694305457545E+08, -8.627331752498269E+06,
2460294.500000000, A.D. 2023-Dec-16 00:00:00.0000, 2.890672731954032E+08, 2.651661994178231E+08, -5.925319342594638E+06,
2460301.500000000, A.D. 2023-Dec-23 00:00:00.0000, 2.820619753273956E+08, 2.737499955894848E+08, -3.218548995181739E+06,
2460308.500000000, A.D. 2023-Dec-30 00:00:00.0000, 2.748314487394183E+08, 2.821151988694127E+08, -5.092149086393863E+05,
2460315.500000000, A.D. 2024-Jan-06 00:00:00.0000, 2.673827795171241E+08, 2.902564601457288E+08, 2.200512206532851E+06,
2460322.500000000, A.D. 2024-Jan-13 00:00:00.0000, 2.597231680363277E+08, 2.981687004624070E+08, 4.908487308887422E+06,
2460329.500000000, A.D. 2024-Jan-20 00:00:00.0000, 2.518599182820729E+08, 3.058471100518973E+08, 7.612592939432248E+06,
2460336.500000000, A.D. 2024-Jan-27 00:00:00.0000, 2.438004273487534E+08, 3.132871479979213E+08, 1.031074110543761E+07,
2460343.500000000, A.D. 2024-Feb-03 00:00:00.0000, 2.355521747161981E+08, 3.204845416049589E+08, 1.300087509591179E+07,
2460350.500000000, A.D. 2024-Feb-10 00:00:00.0000, 2.271227116010828E+08, 3.274352852096107E+08, 1.568097117955019E+07,
2460357.500000000, A.D. 2024-Feb-17 00:00:00.0000, 2.185196505421120E+08, 3.341356384684082E+08, 1.834904017369717E+07,
2460364.500000000, A.D. 2024-Feb-24 00:00:00.0000, 2.097506552721564E+08, 3.405821241637725E+08, 2.100312888341774E+07,
2460371.500000000, A.D. 2024-Mar-02 00:00:00.0000, 2.008234309214689E+08, 3.467715255227426E+08, 2.364132140707035E+07,
2460378.500000000, A.D. 2024-Mar-09 00:00:00.0000, 1.917457147031773E+08, 3.527008830131054E+08, 2.626174029279485E+07,
2460385.500000000, A.D. 2024-Mar-16 00:00:00.0000, 1.825252674869452E+08, 3.583674908423824E+08, 2.886254752861018E+07,
2460392.500000000, A.D. 2024-Mar-23 00:00:00.0000, 1.731698661671174E+08, 3.637688942963700E+08, 3.144194546939047E+07,
2460399.500000000, A.D. 2024-Mar-30 00:00:00.0000, 1.636872945906464E+08, 3.689028879135544E+08, 3.399817790707707E+07,
2460406.500000000, A.D. 2024-Apr-06 00:00:00.0000, 1.540853333009134E+08, 3.737675111523988E+08, 3.652953098917580E+07,
2460413.500000000, A.D. 2024-Apr-13 00:00:00.0000, 1.443717516516373E+08, 3.783610424188555E+08, 3.903433373292689E+07,
2460420.500000000, A.D. 2024-Apr-20 00:00:00.0000, 1.345543013426727E+08, 3.826819941563176E+08, 4.151095844541903E+07,
2460427.500000000, A.D. 2024-Apr-27 00:00:00.0000, 1.246407098595434E+08, 3.867291084589070E+08, 4.395782114711383E+07,
2460434.500000000, A.D. 2024-May-04 00:00:00.0000, 1.146386739016557E+08, 3.905013525281867E+08, 4.637338193789217E+07,
2460441.500000000, A.D. 2024-May-11 00:00:00.0000, 1.045558530340667E+08, 3.939979138950382E+08, 4.875614528035691E+07,
2460448.500000000, A.D. 2024-May-18 00:00:00.0000, 9.439986364067079E+07, 3.972181954510510E+08, 5.110466019968024E+07,
2460455.500000000, A.D. 2024-May-25 00:00:00.0000, 8.417827319882692E+07, 4.001618103037644E+08, 5.341752040220571E+07,
2460462.500000000, A.D. 2024-Jun-01 00:00:00.0000, 7.389859493004453E+07, 4.028285764179473E+08, 5.569336430750218E+07,
2460469.500000000, A.D. 2024-Jun-08 00:00:00.0000, 6.356828306688240E+07, 4.052185110372865E+08, 5.793087497386304E+07,
2460476.500000000, A.D. 2024-Jun-15 00:00:00.0000, 5.319472912776538E+07, 4.073318254473487E+08, 6.012877992924896E+07,
2460483.500000000, A.D. 2024-Jun-22 00:00:00.0000, 4.278525818578257E+07, 4.091689212700044E+08, 6.228585109977823E+07,
2460490.500000000, A.D. 2024-Jun-29 00:00:00.0000, 3.234712299958016E+07, 4.107303864800202E+08, 6.440090488486916E+07,
2460497.500000000, A.D. 2024-Jul-06 00:00:00.0000, 2.188749863635412E+07, 4.120169886856523E+08, 6.647280193877074E+07,
2460504.500000000, A.D. 2024-Jul-13 00:00:00.0000, 1.141347952427685E+07, 4.130296685179309E+08, 6.850044671666378E+07,
2460511.500000000, A.D. 2024-Jul-20 00:00:00.0000, 9.320769418539463E+05, 4.137695342938214E+08, 7.048278706649169E+07,
2460518.500000000, A.D. 2024-Jul-27 00:00:00.0000, -9.549783719987405E+06, 4.142378570045964E+08, 7.241881385216984E+07,
2460525.500000000, A.D. 2024-Aug-03 00:00:00.0000, -2.002526565983080E+07, 4.144360652638432E+08, 7.430756055594888E+07,
2460532.500000000, A.D. 2024-Aug-10 00:00:00.0000, -3.048762317623652E+07, 4.143657402191921E+08, 7.614810284747586E+07,
2460539.500000000, A.D. 2024-Aug-17 00:00:00.0000, -4.093020395010547E+07, 4.140286104572289E+08, 7.793955811985812E+07,
2460546.500000000, A.D. 2024-Aug-24 00:00:00.0000, -5.134645108200797E+07, 4.134265468863925E+08, 7.968108499105912E+07,
2460553.500000000, A.D. 2024-Aug-31 00:00:00.0000, -6.172990477982385E+07, 4.125615575427400E+08, 8.137188275757796E+07,
2460560.500000000, A.D. 2024-Sep-07 00:00:00.0000, -7.207420334230164E+07, 4.114357824507265E+08, 8.301119077973279E+07,
2460567.500000000, A.D. 2024-Sep-14 00:00:00.0000, -8.237308336455917E+07, 4.100514895408882E+08, 8.459828787481102E+07,
2460574.500000000, A.D. 2024-Sep-21 00:00:00.0000, -9.262038120418751E+07, 4.084110720433750E+08, 8.613249194064257E+07,
2460581.500000000, A.D. 2024-Sep-28 00:00:00.0000, -1.028100362033455E+08, 4.065170441316226E+08, 8.761315959199804E+07,
2460588.500000000, A.D. 2024-Oct-05 00:00:00.0000, -1.129360920086794E+08, 4.043720348175790E+08, 8.903968547474657E+07,
2460595.500000000, A.D. 2024-Oct-12 00:00:00.0000, -1.229926963616955E+08, 4.019787830838528E+08, 9.041150153740147E+07,
2460602.500000000, A.D. 2024-Oct-19 00:00:00.0000, -1.329741011188272E+08, 3.993401339859756E+08, 9.172807640083006E+07,
2460609.500000000, A.D. 2024-Oct-26 00:00:00.0000, -1.428746625419156E+08, 3.964590349241875E+08, 9.298891476512502E+07,
2460616.500000000, A.D. 2024-Nov-02 00:00:00.0000, -1.526888416107140E+08, 3.933385319369267E+08, 9.419355681949233E+07,
2460623.500000000, A.D. 2024-Nov-09 00:00:00.0000, -1.624112042695567E+08, 3.899817660374224E+08, 9.534157764962916E+07,
2460630.500000000, A.D. 2024-Nov-16 00:00:00.0000, -1.720364215906369E+08, 3.863919695941166E+08, 9.643258664181753E+07,
2460637.500000000, A.D. 2024-Nov-23 00:00:00.0000, -1.815592698149753E+08, 3.825724627050972E+08, 9.746622687682848E+07,
2460644.500000000, A.D. 2024-Nov-30 00:00:00.0000, -1.909746300705225E+08, 3.785266495234936E+08, 9.844217449241677E+07,
2460651.500000000, A.D. 2024-Dec-07 00:00:00.0000, -2.002774873557194E+08, 3.742580149536963E+08, 9.936013801165411E+07,
2460658.500000000, A.D. 2024-Dec-14 00:00:00.0000, -2.094629294853199E+08, 3.697701229421498E+08, 1.002198578019339E+08,
2460665.500000000, A.D. 2024-Dec-21 00:00:00.0000, -2.185261483239926E+08, 3.650666151228936E+08, 1.010211057777413E+08,
2460672.500000000, A.D. 2024-Dec-28 00:00:00.0000, -2.274624413392794E+08, 3.601512068482734E+08, 1.017636849242521E+08,
2460679.500000000, A.D. 2025-Jan-04 00:00:00.0000, -2.362672108832825E+08, 3.550276829763340E+08, 1.024474285980580E+08,
2460686.500000000, A.D. 2025-Jan-11 00:00:00.0000, -2.449359630326602E+08, 3.496998950744129E+08, 1.030721999095908E+08,
2460693.500000000, A.D. 2025-Jan-18 00:00:00.0000, -2.534643069090765E+08, 3.441717591200910E+08, 1.036378911976062E+08,
2460700.500000000, A.D. 2025-Jan-25 00:00:00.0000, -2.618479542408771E+08, 3.384472532226314E+08, 1.041444235350984E+08,
2460707.500000000, A.D. 2025-Feb-01 00:00:00.0000, -2.700827189811112E+08, 3.325304153319364E+08, 1.045917462471718E+08,
2460714.500000000, A.D. 2025-Feb-08 00:00:00.0000, -2.781645169280357E+08, 3.264253409519439E+08, 1.049798364374510E+08,
$$EOE